JILIN-1 06              
1 43024U 17074C   26071.95289809  .00008435  00000+0  27117-3 0  9998
2 43024  97.4715 174.0678 0006327 211.0083 149.0786 15.32497226459097
JILIN-1 09              
1 43943U 19005B   26071.93843306  .00006659  00000+0  31630-3 0  9991
2 43943  97.4702 167.8157 0003650  81.0037 279.1611 15.19556020394526
JILIN-1 10              
1 43946U 19005E   26071.94373093  .00008304  00000+0  34032-3 0  9994
2 43946  97.4732 170.8685 0007015 252.0458 108.0015 15.24510683394640
JILIN-1 GAOFEN 3A       
1 44312U 19032C   26071.74815581  .00015014  00000+0  51061-3 0  9990
2 44312  44.9739 166.8187 0002781 132.8402 227.2715 15.30366874373054
BEIDOU-3 IGSO-2         
1 44337U 19035A   26057.68879618 -.00000176  00000+0  00000+0 0  9995
2 44337  55.2338 159.8353 0038734 206.4752 153.7223  1.00247364 24561
BEIDOU-3 IGSO-3         
1 44709U 19073A   26069.98346678 -.00000143  00000+0  00000+0 0  9995
2 44709  54.9673 281.9576 0040728 188.7089 171.2538  1.00267242 23477
JILIN-1 GAOFEN 2A       
1 44777U 19075A   26071.97219221  .00017453  00000+0  49089-3 0  9992
2 44777  97.5003 153.7033 0007611  75.4328 284.7759 15.36531150350090
JILIN-1 GAOFEN 2B       
1 44836U 19086A   26071.97583734  .00007094  00000+0  33667-3 0  9998
2 44836  97.4960 144.6227 0012973 297.4393  62.5521 15.19498072345871
JILIN-1 GAOFEN 3J       
1 46462U 20065J   26071.98541263  .00154840  00000+0  96192-3 0  9990
2 46462  97.2390 129.0062 0003956 131.4959 228.6647 15.76537835305192
JILIN-1 GAOFEN 3D03     
1 49006U 21061D   26071.97519159  .00212198  00000+0  10519-2 0  9991
2 49006  97.3012 149.1741 0001547 149.1070 211.0290 15.81428509261062
JILIN-1 GAOFEN 2D       
1 49256U 21086A   26071.95430178  .00007331  00000+0  45155-3 0  9992
2 49256  97.6324 194.9111 0035124 113.7528 246.7391 15.09759641246198
JILIN-1 GAOFEN 2F       
1 49338U 21097A   26071.98170848  .00005231  00000+0  35243-3 0  9997
2 49338  97.6533 198.5605 0018912 191.4083 168.6718 15.06971512241824
JILIN-1 GAOFEN 03D18    
1 51844U 22019W   26071.26638448  .00175452  00000+0  10383-2 0  9993
2 51844  97.3668 163.7334 0003896 138.3279 221.8285 15.77584928224753
JILIN-1 GAOFEN 3D05     
1 52390U 22046C   26071.83940188  .00218721  00000+0  11125-2 0  9992
2 52390  97.4773 186.4584 0003522 235.5289 124.5646 15.80844877215424
JILIN-1 GAOFEN 3D27     
1 52444U 22048B   26071.95601430  .00071620  00000+0  90932-3 0  9990
2 52444  97.5631 178.5839 0004073  41.1796 318.9766 15.59177403214419
JILIN-1 GAOFEN 03D54    
1 54254U 22155D   26071.98251404  .00100458  00000+0  86729-3 0  9996
2 54254  97.6015 215.0398 0002938 308.3699  51.7297 15.68916326185101
