[{"OBJECT_NAME": "JILIN-1 GAOFEN 2B", "NORAD_CAT_ID": 44836, "MEAN_MOTION": 15.19498072, "ECCENTRICITY": 0.0012973, "INCLINATION": 97.496, "RA_OF_ASC_NODE": 144.6227, "ARG_OF_PERICENTER": 297.4393, "MEAN_ANOMALY": 62.5521, "BSTAR": 0.00033667, "EPOCH": "2026-03-12T23:25:12"}, {"OBJECT_NAME": "JILIN-1 GAOFEN 2A", "NORAD_CAT_ID": 44777, "MEAN_MOTION": 15.3653115, "ECCENTRICITY": 0.0007611, "INCLINATION": 97.5003, "RA_OF_ASC_NODE": 153.7033, "ARG_OF_PERICENTER": 75.4328, "MEAN_ANOMALY": 284.7759, "BSTAR": 0.00049089, "EPOCH": "2026-03-12T23:19:57"}, {"OBJECT_NAME": "JILIN-1 GAOFEN 03D18", "NORAD_CAT_ID": 51844, "MEAN_MOTION": 15.77584928, "ECCENTRICITY": 0.0003896, "INCLINATION": 97.3668, "RA_OF_ASC_NODE": 163.7334, "ARG_OF_PERICENTER": 138.3279, "MEAN_ANOMALY": 221.8285, "BSTAR": 0.0010383, "EPOCH": "2026-03-12T06:23:35"}, {"OBJECT_NAME": "JILIN-1 06", "NORAD_CAT_ID": 43024, "MEAN_MOTION": 15.32497226, "ECCENTRICITY": 0.0006327, "INCLINATION": 97.4715, "RA_OF_ASC_NODE": 174.0678, "ARG_OF_PERICENTER": 211.0083, "MEAN_ANOMALY": 149.0786, "BSTAR": 0.00027117000000000005, "EPOCH": "2026-03-12T22:52:10"}, {"OBJECT_NAME": "JILIN-1 GAOFEN 3J", "NORAD_CAT_ID": 46462, "MEAN_MOTION": 15.76537835, "ECCENTRICITY": 0.0003956, "INCLINATION": 97.239, "RA_OF_ASC_NODE": 129.0062, "ARG_OF_PERICENTER": 131.4959, "MEAN_ANOMALY": 228.6647, "BSTAR": 0.00096192, "EPOCH": "2026-03-12T23:38:59"}, {"OBJECT_NAME": "JILIN-1 09", "NORAD_CAT_ID": 43943, "MEAN_MOTION": 15.1955602, "ECCENTRICITY": 0.000365, "INCLINATION": 97.4702, "RA_OF_ASC_NODE": 167.8157, "ARG_OF_PERICENTER": 81.0037, "MEAN_ANOMALY": 279.1611, "BSTAR": 0.00031630000000000004, "EPOCH": "2026-03-12T22:31:20"}, {"OBJECT_NAME": "JILIN-1 10", "NORAD_CAT_ID": 43946, "MEAN_MOTION": 15.24510683, "ECCENTRICITY": 0.0007015, "INCLINATION": 97.4732, "RA_OF_ASC_NODE": 170.8685, "ARG_OF_PERICENTER": 252.0458, "MEAN_ANOMALY": 108.0015, "BSTAR": 0.00034032, "EPOCH": "2026-03-12T22:38:58"}, {"OBJECT_NAME": "JILIN-1 GAOFEN 03D54", "NORAD_CAT_ID": 54254, "MEAN_MOTION": 15.68916326, "ECCENTRICITY": 0.0002938, "INCLINATION": 97.6015, "RA_OF_ASC_NODE": 215.0398, "ARG_OF_PERICENTER": 308.3699, "MEAN_ANOMALY": 51.7297, "BSTAR": 0.00086729, "EPOCH": "2026-03-12T23:34:49"}, {"OBJECT_NAME": "JILIN-1 GAOFEN 3D05", "NORAD_CAT_ID": 52390, "MEAN_MOTION": 15.80844877, "ECCENTRICITY": 0.0003522, "INCLINATION": 97.4773, "RA_OF_ASC_NODE": 186.4584, "ARG_OF_PERICENTER": 235.5289, "MEAN_ANOMALY": 124.5646, "BSTAR": 0.0011125, "EPOCH": "2026-03-12T20:08:44"}, {"OBJECT_NAME": "JILIN-1 GAOFEN 3A", "NORAD_CAT_ID": 44312, "MEAN_MOTION": 15.30366874, "ECCENTRICITY": 0.0002781, "INCLINATION": 44.9739, "RA_OF_ASC_NODE": 166.8187, "ARG_OF_PERICENTER": 132.8402, "MEAN_ANOMALY": 227.2715, "BSTAR": 0.00051061, "EPOCH": "2026-03-12T17:57:20"}, {"OBJECT_NAME": "JILIN-1 GAOFEN 3D03", "NORAD_CAT_ID": 49006, "MEAN_MOTION": 15.81428509, "ECCENTRICITY": 0.0001547, "INCLINATION": 97.3012, "RA_OF_ASC_NODE": 149.1741, "ARG_OF_PERICENTER": 149.107, "MEAN_ANOMALY": 211.029, "BSTAR": 0.0010519000000000001, "EPOCH": "2026-03-12T23:24:16"}, {"OBJECT_NAME": "JILIN-1 GAOFEN 2D", "NORAD_CAT_ID": 49256, "MEAN_MOTION": 15.09759641, "ECCENTRICITY": 0.0035124, "INCLINATION": 97.6324, "RA_OF_ASC_NODE": 194.9111, "ARG_OF_PERICENTER": 113.7528, "MEAN_ANOMALY": 246.7391, "BSTAR": 0.00045155, "EPOCH": "2026-03-12T22:54:11"}, {"OBJECT_NAME": "JILIN-1 GAOFEN 2F", "NORAD_CAT_ID": 49338, "MEAN_MOTION": 15.06971512, "ECCENTRICITY": 0.0018912, "INCLINATION": 97.6533, "RA_OF_ASC_NODE": 198.5605, "ARG_OF_PERICENTER": 191.4083, "MEAN_ANOMALY": 168.6718, "BSTAR": 0.00035243000000000004, "EPOCH": "2026-03-12T23:33:39"}, {"OBJECT_NAME": "JILIN-1 GAOFEN 3D27", "NORAD_CAT_ID": 52444, "MEAN_MOTION": 15.59177403, "ECCENTRICITY": 0.0004073, "INCLINATION": 97.5631, "RA_OF_ASC_NODE": 178.5839, "ARG_OF_PERICENTER": 41.1796, "MEAN_ANOMALY": 318.9766, "BSTAR": 0.00090932, "EPOCH": "2026-03-12T22:56:39"}, {"OBJECT_NAME": "BEIDOU-3 IGSO-2 (C39)", "NORAD_CAT_ID": 44337, "MEAN_MOTION": 1.00247364, "ECCENTRICITY": 0.0038734, "INCLINATION": 55.2338, "RA_OF_ASC_NODE": 159.8353, "ARG_OF_PERICENTER": 206.4752, "MEAN_ANOMALY": 153.7223, "BSTAR": 0.0, "EPOCH": "2026-02-26T16:31:51"}, {"OBJECT_NAME": "BEIDOU-3 IGSO-3 (C40)", "NORAD_CAT_ID": 44709, "MEAN_MOTION": 1.00267242, "ECCENTRICITY": 0.0040728, "INCLINATION": 54.9673, "RA_OF_ASC_NODE": 281.9576, "ARG_OF_PERICENTER": 188.7089, "MEAN_ANOMALY": 171.2538, "BSTAR": 0.0, "EPOCH": "2026-03-10T23:36:11"}]